[{"OBJECT_NAME":"NUSAT-41 (C PAYNE-G)","OBJECT_ID":"2023-084N","EPOCH":"2026-03-09T21:55:54.837696","MEAN_MOTION":15.29680045,"ECCENTRICITY":0.00062175,"INCLINATION":97.5351,"RA_OF_ASC_NODE":204.1011,"ARG_OF_PERICENTER":322.2064,"MEAN_ANOMALY":37.8738,"EPHEMERIS_TYPE":0,"CLASSIFICATION_TYPE":"U","NORAD_CAT_ID":56944,"ELEMENT_SET_NO":999,"REV_AT_EPOCH":15260,"BSTAR":0.00059912824,"MEAN_MOTION_DOT":0.0001718,"MEAN_MOTION_DDOT":0},{"OBJECT_NAME":"STARLINK-35529","OBJECT_ID":"2025-245AB","EPOCH":"2026-03-09T22:14:37.857120","MEAN_MOTION":15.30209425,"ECCENTRICITY":0.00010224,"INCLINATION":53.158,"RA_OF_ASC_NODE":282.7297,"ARG_OF_PERICENTER":81.6798,"MEAN_ANOMALY":278.4319,"EPHEMERIS_TYPE":0,"CLASSIFICATION_TYPE":"U","NORAD_CAT_ID":66259,"ELEMENT_SET_NO":999,"REV_AT_EPOCH":2129,"BSTAR":0.00093163635,"MEAN_MOTION_DOT":0.00027343,"MEAN_MOTION_DDOT":0}]
